H1 CPF  1  DGF 2022 10 19 10  7921 larets     NONE      
H2   304206 5557    27944 2022 10 19 00 00 00 2022 10 26 00 00 00    30 1 1  0 0 0
H5  0.0650
H9
10 0 59877  25200.000000  0       2401928.867      -5944370.803      -2975705.310
10 0 59877  25230.000000  0       2389660.102      -6046791.853      -2772545.622
10 0 59877  25260.000000  0       2374540.050      -6143037.777      -2566561.284
10 0 59877  25290.000000  0       2356611.015      -6232998.207      -2357961.882
10 0 59877  25320.000000  0       2335918.624      -6316569.338      -2146959.725
10 0 59877  25350.000000  0       2312511.749      -6393654.056      -1933769.627
10 0 59877  25380.000000  0       2286442.438      -6464162.059      -1718608.689
10 0 59877  25410.000000  0       2257765.832      -6528009.967      -1501696.073
10 0 59877  25440.000000  0       2226540.085      -6585121.428      -1283252.777
10 0 59877  25470.000000  0       2192826.274      -6635427.216      -1063501.390
10 0 59877  25500.000000  0       2156688.303      -6678865.309       -842665.869
10 0 59877  25530.000000  0       2118192.802      -6715380.967       -620971.303
10 0 59877  25560.000000  0       2077409.031      -6744926.800       -398643.678
10 0 59877  25590.000000  0       2034408.771      -6767462.827       -175909.653
10 0 59877  25620.000000  0       1989266.226      -6782956.537         47003.684
10 0 59877  25650.000000  0       1942057.911      -6791382.928        269869.043
10 0 59877  25680.000000  0       1892862.544      -6792724.554        492459.172
10 0 59877  25710.000000  0       1841760.935      -6786971.548        714547.102
10 0 59877  25740.000000  0       1788835.867      -6774121.651        935906.378
10 0 59877  25770.000000  0       1734171.977      -6754180.213       1156311.305
10 0 59877  25800.000000  0       1677855.637      -6727160.198       1375537.189
10 0 59877  25830.000000  0       1619974.826      -6693082.164       1593360.565
10 0 59877  25860.000000  0       1560619.007      -6651974.244       1809559.429
10 0 59877  25890.000000  0       1499879.006      -6603872.126       2023913.469
10 0 59877  25920.000000  0       1437846.883      -6548819.013       2236204.285
10 0 59877  25950.000000  0       1374615.803      -6486865.588       2446215.623
10 0 59877  25980.000000  0       1310279.911      -6418069.960       2653733.600
10 0 59877  26010.000000  0       1244934.194      -6342497.599       2858546.920
10 0 59877  26040.000000  0       1178674.358      -6260221.273       3060447.090
10 0 59877  26070.000000  0       1111596.695      -6171320.971       3259228.639
10 0 59877  26100.000000  0       1043797.951      -6075883.813       3454689.322
10 0 59877  26130.000000  0        975375.198      -5974003.962       3646630.328
10 0 59877  26160.000000  0        906425.704      -5865782.524       3834856.481
10 0 59877  26190.000000  0        837046.800      -5751327.440       4019176.435
10 0 59877  26220.000000  0        767335.756      -5630753.373       4199402.871
10 0 59877  26250.000000  0        697389.648      -5504181.588       4375352.683
10 0 59877  26280.000000  0        627305.230      -5371739.820       4546847.168
10 0 59877  26310.000000  0        557178.808      -5233562.139       4713712.199
10 0 59877  26340.000000  0        487106.111      -5089788.803       4875778.404
10 0 59877  26370.000000  0        417182.172      -4940566.111       5032881.330
10 0 59877  26400.000000  0        347501.200      -4786046.247       5184861.605
10 0 59877  26430.000000  0        278156.467      -4626387.115       5331565.099
10 0 59877  26460.000000  0        209240.186      -4461752.179       5472843.072
10 0 59877  26490.000000  0        140843.394      -4292310.278       5608552.324
10 0 59877  26520.000000  0         73055.842      -4118235.455       5738555.334
10 0 59877  26550.000000  0          5965.878      -3939706.767       5862720.392
10 0 59877  26580.000000  0        -60339.661      -3756908.094       5980921.724
10 0 59877  26610.000000  0       -125775.553      -3570027.950       6093039.613
10 0 59877  26640.000000  0       -190258.302      -3379259.282       6198960.514
10 0 59877  26670.000000  0       -253706.236      -3184799.267       6298577.156
10 0 59877  26700.000000  0       -316039.608      -2986849.116       6391788.647
10 0 59877  26730.000000  0       -377180.688      -2785613.854       6478500.572
10 0 59877  26760.000000  0       -437053.860      -2581302.119       6558625.079
10 0 59877  26790.000000  0       -495585.712      -2374125.939       6632080.966
10 0 59877  26820.000000  0       -552705.117      -2164300.517       6698793.759
10 0 59877  26850.000000  0       -608343.322      -1952044.004       6758695.782
10 0 59877  26880.000000  0       -662434.026      -1737577.280       6811726.227
10 0 59877  26910.000000  0       -714913.457      -1521123.720       6857831.209
10 0 59877  26940.000000  0       -765720.444      -1302908.960       6896963.823
10 0 59877  26970.000000  0       -814796.488      -1083160.670       6929084.186
10 0 59877  27000.000000  0       -862085.831       -862108.311       6954159.478
10 0 59877  27030.000000  0       -907535.515       -639982.899       6972163.972
10 0 59877  27060.000000  0       -951095.441       -417016.770       6983079.061
10 0 59877  27090.000000  0       -992718.427       -193443.333       6986893.273
10 0 59877  27120.000000  0      -1032360.255         30503.165       6983602.290
10 0 59877  27150.000000  0      -1069979.718        254587.886       6973208.948
10 0 59877  27180.000000  0      -1105538.666        478575.648       6955723.240
10 0 59877  27210.000000  0      -1139002.041        702231.163       6931162.308
10 0 59877  27240.000000  0      -1170337.914        925319.287       6899550.423
10 0 59877  27270.000000  0      -1199517.513       1147605.259       6860918.973
10 0 59877  27300.000000  0      -1226515.253       1368854.954       6815306.431
10 0 59877  27330.000000  0      -1251308.757       1588835.120       6762758.324
10 0 59877  27360.000000  0      -1273878.878       1807313.629       6703327.192
10 0 59877  27390.000000  0      -1294209.706       2024059.720       6637072.538
10 0 59877  27420.000000  0      -1312288.587       2238844.240       6564060.776
10 0 59877  27450.000000  0      -1328106.123       2451439.884       6484365.173
10 0 59877  27480.000000  0      -1341656.178       2661621.444       6398065.783
10 0 59877  27510.000000  0      -1352935.877       2869166.044       6305249.369
10 0 59877  27540.000000  0      -1361945.598       3073853.380       6206009.327
10 0 59877  27570.000000  0      -1368688.962       3275465.956       6100445.591
10 0 59877  27600.000000  0      -1373172.817       3473789.316       5988664.549
10 0 59877  27630.000000  0      -1375407.216       3668612.274       5870778.940
10 0 59877  27660.000000  0      -1375405.399       3859727.145       5746907.749
10 0 59877  27690.000000  0      -1373183.762       4046929.976       5617176.100
10 0 59877  27720.000000  0      -1368761.829       4230020.763       5481715.130
10 0 59877  27750.000000  0      -1362162.216       4408803.679       5340661.869
10 0 59877  27780.000000  0      -1353410.593       4583087.287       5194159.103
10 0 59877  27810.000000  0      -1342535.641       4752684.752       5042355.239
10 0 59877  27840.000000  0      -1329569.002       4917414.055       4885404.159
10 0 59877  27870.000000  0      -1314545.232       5077098.191       4723465.063
10 0 59877  27900.000000  0      -1297501.737       5231565.371       4556702.320
10 0 59877  27930.000000  0      -1278478.718       5380649.215       4385285.296
10 0 59877  27960.000000  0      -1257519.107       5524188.931       4209388.190
10 0 59877  27990.000000  0      -1234668.499       5662029.502       4029189.868
10 0 59877  28020.000000  0      -1209975.088       5794021.865       3844873.682
10 0 59877  28050.000000  0      -1183489.596       5920023.082       3656627.288
10 0 59877  28080.000000  0      -1155265.195       6039896.513       3464642.461
10 0 59877  28110.000000  0      -1125357.432       6153511.975       3269114.892
10 0 59877  28140.000000  0      -1093824.139       6260745.898       3070243.987
10 0 59877  28170.000000  0      -1060725.348       6361481.470       2868232.659
10 0 59877  28200.000000  0      -1026123.196       6455608.768       2663287.116
10 0 59877  28230.000000  0       -990081.830       6543024.888       2455616.652
10 0 59877  28260.000000  0       -952667.313       6623634.066       2245433.424
10 0 59877  28290.000000  0       -913947.527       6697347.791       2032952.240
10 0 59877  28320.000000  0       -873992.067       6764084.911       1818390.329
10 0 59877  28350.000000  0       -832872.144       6823771.731       1601967.113
10 0 59877  28380.000000  0       -790660.473       6876342.100       1383903.980
10 0 59877  28410.000000  0       -747431.167       6921737.490       1164424.049
10 0 59877  28440.000000  0       -703259.627       6959907.068        943751.939
10 0 59877  28470.000000  0       -658222.428       6990807.757        722113.530
10 0 59877  28500.000000  0       -612397.209       7014404.293        499735.728
10 0 59877  28530.000000  0       -565862.555       7030669.272        276846.216
10 0 59877  28560.000000  0       -518697.880       7039583.181         53673.221
10 0 59877  28590.000000  0       -470983.314       7041134.423       -169554.739
10 0 59877  28620.000000  0       -422799.580       7035319.337       -392609.097
10 0 59877  28650.000000  0       -374227.876       7022142.197       -615261.480
10 0 59877  28680.000000  0       -325349.756       7001615.206       -837283.953
10 0 59877  28710.000000  0       -276247.012       6973758.485      -1058449.265
10 0 59877  28740.000000  0       -227001.550       6938600.041      -1278531.083
10 0 59877  28770.000000  0       -177695.280       6896175.737      -1497304.235
99
